{
  "type": "FeatureCollection",
  "features": [
    {
      "type": "Feature",
      "properties": {
        "norad_id": 41330,
        "name": "COSMOS 2514 (751)",
        "group": "gnss",
        "lat": 54.27252208418415,
        "lon": 98.79840499647682,
        "alt_km": 19130.67961139371,
        "timestamp": "2025-12-26T06:43:29.753912+00:00",
        "meta_object_name": "COSMOS 2514 (751)",
        "meta_object_id": "2016-008A",
        "meta_epoch": "2025-12-24T06:01:31.134720",
        "meta_mean_motion": 2.13102586,
        "meta_eccentricity": 0.00116213,
        "meta_inclination": 65.1271,
        "meta_ra_of_asc_node": 319.0099,
        "meta_arg_of_pericenter": 220.0868,
        "meta_mean_anomaly": 139.8285,
        "meta_ephemeris_type": 0,
        "meta_classification_type": "U",
        "meta_norad_cat_id": 41330,
        "meta_element_set_no": 999,
        "meta_rev_at_epoch": 7689,
        "meta_bstar": 0,
        "meta_mean_motion_dot": -3.3e-07,
        "meta_mean_motion_ddot": 0,
        "tle_line1": "1 41330U 16008A   25358.25105480 -.00000033  00000+0  00000+0 0  9999",
        "tle_line2": "2 41330  65.1271 319.0099 0011621 220.0868 139.8285  2.13102586 76897"
      },
      "geometry": {
        "type": "Point",
        "coordinates": [
          98.79840499647682,
          54.27252208418415
        ]
      }
    },
    {
      "type": "Feature",
      "properties": {
        "norad_id": 41384,
        "name": "IRNSS-1F",
        "group": "gnss",
        "lat": 3.899531917616836,
        "lon": -131.64735008794315,
        "alt_km": 35728.32615511433,
        "timestamp": "2025-12-26T06:43:29.753925+00:00",
        "meta_object_name": "IRNSS-1F",
        "meta_object_id": "2016-015A",
        "meta_epoch": "2025-12-24T23:31:33.658752",
        "meta_mean_motion": 1.00278532,
        "meta_eccentricity": 0.00226614,
        "meta_inclination": 4.9118,
        "meta_ra_of_asc_node": 100.9953,
        "meta_arg_of_pericenter": 182.2729,
        "meta_mean_anomaly": 195.8977,
        "meta_ephemeris_type": 0,
        "meta_classification_type": "U",
        "meta_norad_cat_id": 41384,
        "meta_element_set_no": 999,
        "meta_rev_at_epoch": 3592,
        "meta_bstar": 0,
        "meta_mean_motion_dot": 1.78e-06,
        "meta_mean_motion_ddot": 0,
        "tle_line1": "1 41384U 16015A   25358.98025068  .00000178  00000+0  00000+0 0  9998",
        "tle_line2": "2 41384   4.9118 100.9953 0022661 182.2729 195.8977  1.00278532 35923"
      },
      "geometry": {
        "type": "Point",
        "coordinates": [
          -131.64735008794315,
          3.899531917616836
        ]
      }
    },
    {
      "type": "Feature",
      "properties": {
        "norad_id": 41434,
        "name": "BEIDOU-2 IGSO-6 (C13)",
        "group": "gnss",
        "lat": -54.46183215851843,
        "lon": -86.20701430084253,
        "alt_km": 35544.522003651815,
        "timestamp": "2025-12-26T06:43:29.753939+00:00",
        "meta_object_name": "BEIDOU-2 IGSO-6 (C13)",
        "meta_object_id": "2016-021A",
        "meta_epoch": "2025-12-25T02:21:14.682240",
        "meta_mean_motion": 1.00290736,
        "meta_eccentricity": 0.00608236,
        "meta_inclination": 59.9818,
        "meta_ra_of_asc_node": 39.7747,
        "meta_arg_of_pericenter": 230.5129,
        "meta_mean_anomaly": 312.5474,
        "meta_ephemeris_type": 0,
        "meta_classification_type": "U",
        "meta_norad_cat_id": 41434,
        "meta_element_set_no": 999,
        "meta_rev_at_epoch": 3573,
        "meta_bstar": 0,
        "meta_mean_motion_dot": -1.35e-06,
        "meta_mean_motion_ddot": 0,
        "tle_line1": "1 41434U 16021A   25359.09808660 -.00000135  00000+0  00000+0 0  9995",
        "tle_line2": "2 41434  59.9818  39.7747 0060823 230.5129 312.5474  1.00290736 35738"
      },
      "geometry": {
        "type": "Point",
        "coordinates": [
          -86.20701430084253,
          -54.46183215851843
        ]
      }
    },
    {
      "type": "Feature",
      "properties": {
        "norad_id": 41469,
        "name": "IRNSS-1G",
        "group": "gnss",
        "lat": -3.3079478556521495,
        "lon": -34.65766561854768,
        "alt_km": 35788.64714794091,
        "timestamp": "2025-12-26T06:43:29.753951+00:00",
        "meta_object_name": "IRNSS-1G",
        "meta_object_id": "2016-027A",
        "meta_epoch": "2025-12-25T19:59:21.836832",
        "meta_mean_motion": 1.00273523,
        "meta_eccentricity": 0.00027082,
        "meta_inclination": 4.7666,
        "meta_ra_of_asc_node": 101.7633,
        "meta_arg_of_pericenter": 326.3676,
        "meta_mean_anomaly": 95.8651,
        "meta_ephemeris_type": 0,
        "meta_classification_type": "U",
        "meta_norad_cat_id": 41469,
        "meta_element_set_no": 999,
        "meta_rev_at_epoch": 3544,
        "meta_bstar": 0,
        "meta_mean_motion_dot": -3.14e-06,
        "meta_mean_motion_ddot": 0,
        "tle_line1": "1 41469U 16027A   25359.83289163 -.00000314  00000+0  00000+0 0  9991",
        "tle_line2": "2 41469   4.7666 101.7633 0002708 326.3676  95.8651  1.00273523 35449"
      },
      "geometry": {
        "type": "Point",
        "coordinates": [
          -34.65766561854768,
          -3.3079478556521495
        ]
      }
    },
    {
      "type": "Feature",
      "properties": {
        "norad_id": 41549,
        "name": "GSAT0211 (GALILEO 14)",
        "group": "gnss",
        "lat": -29.773863872926523,
        "lon": -157.02217352516368,
        "alt_km": 23218.99054612169,
        "timestamp": "2025-12-26T06:43:29.753972+00:00",
        "meta_object_name": "GSAT0211 (GALILEO 14)",
        "meta_object_id": "2016-030A",
        "meta_epoch": "2025-12-23T23:52:07.352256",
        "meta_mean_motion": 1.70473256,
        "meta_eccentricity": 0.0004011,
        "meta_inclination": 55.1486,
        "meta_ra_of_asc_node": 226.5135,
        "meta_arg_of_pericenter": 16.1635,
        "meta_mean_anomaly": 343.9466,
        "meta_ephemeris_type": 0,
        "meta_classification_type": "U",
        "meta_norad_cat_id": 41549,
        "meta_element_set_no": 999,
        "meta_rev_at_epoch": 5968,
        "meta_bstar": 0,
        "meta_mean_motion_dot": 7.2e-07,
        "meta_mean_motion_ddot": 0,
        "tle_line1": "1 41549U 16030A   25357.99452954  .00000072  00000+0  00000+0 0  9999",
        "tle_line2": "2 41549  55.1486 226.5135 0004011  16.1635 343.9466  1.70473256 59684"
      },
      "geometry": {
        "type": "Point",
        "coordinates": [
          -157.02217352516368,
          -29.773863872926523
        ]
      }
    },
    {
      "type": "Feature",
      "properties": {
        "norad_id": 41550,
        "name": "GSAT0210 (GALILEO 13)",
        "group": "gnss",
        "lat": 12.383908913786708,
        "lon": 37.663876203748174,
        "alt_km": 23219.225853498607,
        "timestamp": "2025-12-26T06:43:29.753986+00:00",
        "meta_object_name": "GSAT0210 (GALILEO 13)",
        "meta_object_id": "2016-030B",
        "meta_epoch": "2025-12-24T20:07:27.603552",
        "meta_mean_motion": 1.70473396,
        "meta_eccentricity": 5.683e-05,
        "meta_inclination": 55.1478,
        "meta_ra_of_asc_node": 226.4883,
        "meta_arg_of_pericenter": 175.0994,
        "meta_mean_anomaly": 184.9941,
        "meta_ephemeris_type": 0,
        "meta_classification_type": "U",
        "meta_norad_cat_id": 41550,
        "meta_element_set_no": 999,
        "meta_rev_at_epoch": 5969,
        "meta_bstar": 0,
        "meta_mean_motion_dot": 7.1e-07,
        "meta_mean_motion_ddot": 0,
        "tle_line1": "1 41550U 16030B   25358.83851393  .00000071  00000+0  00000+0 0  9994",
        "tle_line2": "2 41550  55.1478 226.4883 0000568 175.0994 184.9941  1.70473396 59699"
      },
      "geometry": {
        "type": "Point",
        "coordinates": [
          37.663876203748174,
          12.383908913786708
        ]
      }
    },
    {
      "type": "Feature",
      "properties": {
        "norad_id": 41586,
        "name": "BEIDOU-2 G7 (C03)",
        "group": "gnss",
        "lat": -1.5396260798497083,
        "lon": -53.75282923435661,
        "alt_km": 35799.08825871136,
        "timestamp": "2025-12-26T06:43:29.753998+00:00",
        "meta_object_name": "BEIDOU-2 G7 (C03)",
        "meta_object_id": "2016-037A",
        "meta_epoch": "2025-12-25T22:09:08.222976",
        "meta_mean_motion": 1.00268204,
        "meta_eccentricity": 0.00051777,
        "meta_inclination": 1.7871,
        "meta_ra_of_asc_node": 67.9012,
        "meta_arg_of_pericenter": 0.645,
        "meta_mean_anomaly": 108.832,
        "meta_ephemeris_type": 0,
        "meta_classification_type": "U",
        "meta_norad_cat_id": 41586,
        "meta_element_set_no": 999,
        "meta_rev_at_epoch": 515,
        "meta_bstar": 0,
        "meta_mean_motion_dot": -3.32e-06,
        "meta_mean_motion_ddot": 0,
        "tle_line1": "1 41586U 16037A   25359.92301184 -.00000332  00000+0  00000+0 0  9990",
        "tle_line2": "2 41586   1.7871  67.9012 0005177   0.6450 108.8320  1.00268204  5156"
      },
      "geometry": {
        "type": "Point",
        "coordinates": [
          -53.75282923435661,
          -1.5396260798497083
        ]
      }
    }
  ]
}